NORAD_CAT_ID,OBJECT_NAME,OBJECT_TYPE,EPOCH,MEAN_MOTION,ECCENTRICITY,INCLINATION,RA_OF_ASC_NODE,ARG_OF_PERICENTER,MEAN_ANOMALY,BSTAR,MEAN_MOTION_DOT,MEAN_MOTION_DDOT,TLE_LINE0,TLE_LINE1,TLE_LINE2,SEMIMAJOR_AXIS,PERIOD,APOGEE,PERIGEE,DECAYED
53434.0,STARLINK-4498,PAYLOAD,2023-06-21 23:34:53,15.08840149,9.58e-05,53.2157,235.788,84.8755,275.2346,9.2261e-05,1.181e-05,0.0,0 STARLINK-4498,1 53434U 22097AY  23172.98255911  .00001181  00000-0  92261-4 0  9999,2 53434  53.2157 235.7880 0000958  84.8755 275.2346 15.08840149 48591,6917.88,95.438,540.408,539.082,0.0
53434.0,STARLINK-4498,PAYLOAD,2023-06-23 10:33:21,15.08846297,8.76e-05,53.2159,229.2461,86.1068,274.0024,6.9859e-05,8.24e-06,0.0,0 STARLINK-4498,1 53434U 22097AY  23174.43983635  .00000824  00000-0  69859-4 0  9992,2 53434  53.2159 229.2461 0000876  86.1068 274.0024 15.08846297 48812,6917.861,95.437,540.332,539.12,0.0
53434.0,STARLINK-4498,PAYLOAD,2023-06-24 02:27:13,15.08835657,0.0001153,53.2159,226.2728,90.6543,269.4581,9.1084e-05,1.162e-05,0.0,0 STARLINK-4498,1 53434U 22097AY  23175.10224322  .00001162  00000-0  91084-4 0  9999,2 53434  53.2159 226.2728 0001153  90.6543 269.4581 15.08835657 48917,6917.894,95.438,540.556,538.961,0.0
53434.0,STARLINK-4498,PAYLOAD,2023-06-25 10:14:56,15.08842272,0.0001045,53.2161,220.3262,96.6376,263.4735,8.3511e-05,1.042e-05,0.0,0 STARLINK-4498,1 53434U 22097AY  23176.42704150  .00001042  00000-0  83511-4 0  9990,2 53434  53.2161 220.3262 0001045  96.6376 263.4735 15.08842272 49117,6917.873,95.437,540.461,539.016,0.0
53434.0,STARLINK-4498,PAYLOAD,2023-06-26 02:08:48,15.08836819,8.3e-05,53.2153,217.3522,92.737,267.3717,7.0286e-05,8.31e-06,0.0,0 STARLINK-4498,1 53434U 22097AY  23177.08944536  .00000831  00000-0  70286-4 0  9997,2 53434  53.2153 217.3522 0000830  92.7370 267.3717 15.08836819 49219,6917.89,95.438,540.329,539.181,0.0
53434.0,STARLINK-4498,PAYLOAD,2023-06-27 09:56:31,15.08827378,0.0001082,53.2155,211.4048,91.8989,268.2127,-6.6117e-05,-1.339e-05,0.0,0 STARLINK-4498,1 53434U 22097AY  23178.41425897 -.00001339  00000-0 -66117-4 0  9993,2 53434  53.2155 211.4048 0001082  91.8989 268.2127 15.08827378 49412,6917.919,95.438,540.532,539.035,0.0
53434.0,STARLINK-4498,PAYLOAD,2023-06-29 04:51:56,15.08851725,0.0001718,53.2155,203.3751,83.5536,276.5651,-0.00021485,-3.707e-05,0.0,0 STARLINK-4498,1 53434U 22097AY  23180.20273952 -.00003707  00000-0 -21485-3 0  9995,2 53434  53.2155 203.3751 0001718  83.5536 276.5651 15.08851725 49681,6917.845,95.437,540.898,538.521,0.0
53434.0,STARLINK-4498,PAYLOAD,2023-06-29 08:02:44,15.08764997,0.0001273,53.2155,202.7806,101.5342,258.5793,0.00099443,0.00015541,0.0,0 STARLINK-4498,1 53434U 22097AY  23180.33524025  .00015541  00000-0  99443-3 0  9995,2 53434  53.2155 202.7806 0001273 101.5342 258.5793 15.08764997 49701,6918.11,95.442,540.855,539.094,0.0
53434.0,STARLINK-4498,PAYLOAD,2023-07-01 07:44:16,15.0884564,0.0001071,53.2155,193.8593,86.514,273.5975,0.00013275,1.826e-05,0.0,0 STARLINK-4498,1 53434U 22097AY  23182.32241751  .00001826  00000-0  13275-3 0  9998,2 53434  53.2155 193.8593 0001071  86.5140 273.5975 15.08845640 50007,6917.863,95.437,540.469,538.987,0.0
53434.0,STARLINK-4498,PAYLOAD,2023-07-02 17:07:22,15.08845548,0.0001092,53.2155,187.6142,83.1747,276.9369,3.0745e-05,2.02e-06,0.0,0 STARLINK-4498,1 53434U 22097AY  23183.71345489  .00000202  00000-0  30745-4 0  9994,2 53434  53.2155 187.6142 0001092  83.1747 276.9369 15.08845548 50211,6917.863,95.437,540.484,538.973,0.0
53434.0,STARLINK-4498,PAYLOAD,2023-07-03 23:19:42,15.08841727,0.0001132,53.2157,181.9642,90.9508,269.1614,8.012e-06,-1.6e-06,0.0,0 STARLINK-4498,1 53434U 22097AY  23184.97201399 -.00000160  00000-0  80120-5 0  9991,2 53434  53.2157 181.9642 0001132  90.9508 269.1614 15.08841727 50404,6917.875,95.437,540.523,538.957,0.0
53434.0,STARLINK-4498,PAYLOAD,2023-07-05 07:07:24,15.08838175,0.0001178,53.2157,176.0167,83.9051,276.2075,2.7816e-05,1.55e-06,0.0,0 STARLINK-4498,1 53434U 22097AY  23186.29681633  .00000155  00000-0  27816-4 0  9996,2 53434  53.2157 176.0167 0001178  83.9051 276.2075 15.08838175 50601,6917.886,95.438,540.566,538.936,0.0
53434.0,STARLINK-4498,PAYLOAD,2023-07-06 05:22:48,15.0884377,0.0001199,53.2161,171.8535,83.9289,276.184,7.5124e-05,9.08e-06,0.0,0 STARLINK-4498,1 53434U 22097AY  23187.22417156  .00000908  00000-0  75124-4 0  9998,2 53434  53.2161 171.8535 0001199  83.9289 276.1840 15.08843770 50745,6917.869,95.437,540.563,538.904,0.0
53434.0,STARLINK-4498,PAYLOAD,2023-07-07 08:24:21,15.08840962,9e-05,53.2168,166.7992,77.4718,282.6374,6.2987e-05,7.15e-06,0.0,0 STARLINK-4498,1 53434U 22097AY  23188.35025319  .00000715  00000-0  62987-4 0  9998,2 53434  53.2168 166.7992 0000900  77.4718 282.6374 15.08840962 50919,6917.877,95.437,540.365,539.12,0.0
53434.0,STARLINK-4498,PAYLOAD,2023-07-08 08:15:10,15.08843947,0.0001026,53.2164,162.3384,118.5838,241.5258,0.00011127,1.484e-05,0.0,0 STARLINK-4498,1 53434U 22097AY  23189.34387339  .00001484  00000-0  11127-3 0  9994,2 53434  53.2164 162.3384 0001026 118.5838 241.5258 15.08843947 51060,6917.868,95.437,540.443,539.024,0.0
53434.0,STARLINK-4498,PAYLOAD,2023-07-09 04:55:10,15.08855239,9.02e-05,53.2162,158.473,122.6242,237.4837,0.00021526,3.141e-05,0.0,0 STARLINK-4498,1 53434U 22097AY  23190.20498197  .00003141  00000-0  21526-3 0  9992,2 53434  53.2162 158.4730 0000902 122.6242 237.4837 15.08855239 51194,6917.834,95.437,540.323,539.075,0.0
53434.0,STARLINK-4498,PAYLOAD,2023-07-09 14:27:29,15.08848331,7.66e-05,53.2158,156.6893,126.2396,233.8667,0.00024361,3.592e-05,0.0,0 STARLINK-4498,1 53434U 22097AY  23190.60242401  .00003592  00000-0  24361-3 0  9991,2 53434  53.2158 156.6893 0000766 126.2396 233.8667 15.08848331 51250,6917.855,95.437,540.25,539.19,0.0
53434.0,STARLINK-4498,PAYLOAD,2023-07-10 03:10:35,15.08855595,0.0001026,53.2169,154.3103,146.9321,213.1736,3.1665e-05,2.16e-06,0.0,0 STARLINK-4498,1 53434U 22097AY  23191.13235094  .00000216  00000-0  31665-4 0  9996,2 53434  53.2169 154.3103 0001026 146.9321 213.1736 15.08855595 51335,6917.833,95.437,540.407,538.988,0.0
53434.0,STARLINK-4498,PAYLOAD,2023-07-11 07:47:30,15.08855452,7.98e-05,53.2173,148.9573,135.6555,224.4501,-8.2348e-05,-1.599e-05,0.0,0 STARLINK-4498,1 53434U 22097AY  23192.32466298 -.00001599  00000-0 -82348-4 0  9991,2 53434  53.2173 148.9573 0000798 135.6555 224.4501 15.08855452 51516,6917.833,95.437,540.25,539.146,0.0
53434.0,STARLINK-4498,PAYLOAD,2023-07-12 13:59:50,15.08845867,7.09e-05,53.218,143.3068,113.7051,246.4015,-1.1511e-05,-4.71e-06,0.0,0 STARLINK-4498,1 53434U 22097AY  23193.58322109 -.00000471  00000-0 -11511-4 0  9994,2 53434  53.2180 143.3068 0000709 113.7051 246.4015 15.08845867 51706,6917.862,95.437,540.218,539.237,0.0
53434.0,STARLINK-4498,PAYLOAD,2023-07-14 05:44:28,15.08843939,6.02e-05,53.2164,135.8725,140.9704,219.1332,-2.0908e-05,-6.2e-06,0.0,0 STARLINK-4498,1 53434U 22097AY  23195.23922286 -.00000620  00000-0 -20908-4 0  9996,2 53434  53.2164 135.8725 0000602 140.9704 219.1332 15.08843939 51957,6917.868,95.437,540.15,539.317,0.0
53434.0,STARLINK-4498,PAYLOAD,2023-07-15 05:35:14,15.08853879,6.2e-05,53.217,131.4121,110.3339,249.7719,0.00015962,2.255e-05,0.0,0 STARLINK-4498,1 53434U 22097AY  23196.23281067  .00002255  00000-0  15962-3 0  9999,2 53434  53.2170 131.4121 0000620 110.3339 249.7719 15.08853879 52101,6917.838,95.437,540.132,539.274,0.0
53434.0,STARLINK-4498,PAYLOAD,2023-07-16 03:50:40,15.08837412,6.57e-05,53.2174,127.2496,78.7252,281.3814,-4.7481e-06,-3.63e-06,0.0,0 STARLINK-4498,1 53434U 22097AY  23197.16018878 -.00000363  00000-0 -47481-5 0  9993,2 53434  53.2174 127.2496 0000657  78.7252 281.3814 15.08837412 52242,6917.888,95.438,540.208,539.299,0.0
53434.0,STARLINK-4498,PAYLOAD,2023-07-17 02:06:03,15.08851142,6.77e-05,53.2171,123.0876,73.705,286.4017,2.1857e-05,6e-07,0.0,0 STARLINK-4498,1 53434U 22097AY  23198.08754066  .00000060  00000-0  21857-4 0  9991,2 53434  53.2171 123.0876 0000677  73.7050 286.4017 15.08851142 52380,6917.846,95.437,540.18,539.243,0.0
53434.0,STARLINK-4498,PAYLOAD,2023-07-17 11:38:22,15.08844773,7.06e-05,53.2173,121.3021,71.8811,288.2257,-2.1699e-05,-6.33e-06,0.0,0 STARLINK-4498,1 53434U 22097AY  23198.48498376 -.00000633  00000-0 -21699-4 0  9996,2 53434  53.2173 121.3021 0000706  71.8811 288.2257 15.08844773 52447,6917.866,95.437,540.219,539.242,0.0
53434.0,STARLINK-4498,PAYLOAD,2023-07-18 00:21:28,15.08836955,9.35e-05,53.2176,118.9233,64.7535,295.3554,9.1613e-05,1.17e-05,0.0,0 STARLINK-4498,1 53434U 22097AY  23199.01490989  .00001170  00000-0  91613-4 0  9996,2 53434  53.2176 118.9233 0000935  64.7535 295.3554 15.08836955 52526,6917.89,95.438,540.402,539.108,0.0
53434.0,STARLINK-4498,PAYLOAD,2023-07-19 01:47:38,15.08841516,8.89e-05,53.2178,114.1651,80.6752,279.4341,4.08e-05,3.62e-06,0.0,0 STARLINK-4498,1 53434U 22097AY  23200.07474961  .00000362  00000-0  40800-4 0  9991,2 53434  53.2178 114.1651 0000889  80.6752 279.4341 15.08841516 52689,6917.876,95.437,540.356,539.126,0.0
53434.0,STARLINK-4498,PAYLOAD,2023-07-20 17:32:17,15.08838435,0.0001031,53.2181,106.731,78.6923,281.4185,6.6469e-05,7.7e-06,0.0,0 STARLINK-4498,1 53434U 22097AY  23201.73075512  .00000770  00000-0  66469-4 0  9996,2 53434  53.2181 106.7310 0001031  78.6923 281.4185 15.08838435 52932,6917.885,95.438,540.463,539.037,0.0
53434.0,STARLINK-4498,PAYLOAD,2023-07-20 22:18:25,15.08873268,9.05e-05,53.2178,105.8407,73.3218,286.7873,-0.00031452,-5.294e-05,0.0,0 STARLINK-4498,1 53434U 22097AY  23201.92946307 -.00005294  00000-0 -31452-3 0  9997,2 53434  53.2178 105.8407 0000905  73.3218 286.7873 15.08873268 52961,6917.779,95.435,540.27,539.018,0.0
53434.0,STARLINK-4498,PAYLOAD,2023-07-24 02:36:57,15.08835329,0.0001172,53.2181,91.5715,110.3122,249.7996,-6.6317e-05,-1.343e-05,0.0,0 STARLINK-4498,1 53434U 22097AY  23205.10900063 -.00001343  00000-0 -66317-4 0  9990,2 53434  53.2181  91.5715 0001172 110.3122 249.7996 15.08835329 53930,6917.895,95.438,540.57,538.949,0.0
